[{"OBJECT_NAME":"O3B FM5","OBJECT_ID":"2013-031A","EPOCH":"2026-03-06T02:18:58.226400","MEAN_MOTION":5.00116473,"ECCENTRICITY":0.0003333,"INCLINATION":0.098,"RA_OF_ASC_NODE":13.5954,"ARG_OF_PERICENTER":322.146,"MEAN_ANOMALY":24.2376,"EPHEMERIS_TYPE":0,"CLASSIFICATION_TYPE":"U","NORAD_CAT_ID":39188,"ELEMENT_SET_NO":999,"REV_AT_EPOCH":23188,"BSTAR":0,"MEAN_MOTION_DOT":-2.6e-7,"MEAN_MOTION_DDOT":0},{"OBJECT_NAME":"O3B FM4","OBJECT_ID":"2013-031B","EPOCH":"2026-03-05T19:34:52.364640","MEAN_MOTION":5.0011522,"ECCENTRICITY":0.00050843,"INCLINATION":0.0553,"RA_OF_ASC_NODE":345.1263,"ARG_OF_PERICENTER":8.8542,"MEAN_ANOMALY":6.0077,"EPHEMERIS_TYPE":0,"CLASSIFICATION_TYPE":"U","NORAD_CAT_ID":39189,"ELEMENT_SET_NO":999,"REV_AT_EPOCH":23187,"BSTAR":0,"MEAN_MOTION_DOT":-2.6e-7,"MEAN_MOTION_DDOT":0},{"OBJECT_NAME":"O3B FM2","OBJECT_ID":"2013-031C","EPOCH":"2026-03-06T01:57:17.779392","MEAN_MOTION":5.00116024,"ECCENTRICITY":0.00028275,"INCLINATION":0.0562,"RA_OF_ASC_NODE":338.9132,"ARG_OF_PERICENTER":5.0674,"MEAN_ANOMALY":16.0049,"EPHEMERIS_TYPE":0,"CLASSIFICATION_TYPE":"U","NORAD_CAT_ID":39190,"ELEMENT_SET_NO":999,"REV_AT_EPOCH":23195,"BSTAR":0,"MEAN_MOTION_DOT":-2.6e-7,"MEAN_MOTION_DDOT":0},{"OBJECT_NAME":"O3B PFM","OBJECT_ID":"2013-031D","EPOCH":"2026-03-06T02:17:37.197024","MEAN_MOTION":5.00115906,"ECCENTRICITY":0.00051477,"INCLINATION":0.0668,"RA_OF_ASC_NODE":7.2787,"ARG_OF_PERICENTER":352.3292,"MEAN_ANOMALY":0.3862,"EPHEMERIS_TYPE":0,"CLASSIFICATION_TYPE":"U","NORAD_CAT_ID":39191,"ELEMENT_SET_NO":999,"REV_AT_EPOCH":23151,"BSTAR":0,"MEAN_MOTION_DOT":-2.6e-7,"MEAN_MOTION_DDOT":0},{"OBJECT_NAME":"O3B FM3","OBJECT_ID":"2014-038A","EPOCH":"2026-03-05T23:05:42.865152","MEAN_MOTION":5.00115599,"ECCENTRICITY":6.291e-5,"INCLINATION":0.053,"RA_OF_ASC_NODE":353.4607,"ARG_OF_PERICENTER":56.5269,"MEAN_ANOMALY":310.0124,"EPHEMERIS_TYPE":0,"CLASSIFICATION_TYPE":"U","NORAD_CAT_ID":40079,"ELEMENT_SET_NO":999,"REV_AT_EPOCH":20788,"BSTAR":0,"MEAN_MOTION_DOT":-2.6e-7,"MEAN_MOTION_DDOT":0},{"OBJECT_NAME":"O3B FM7","OBJECT_ID":"2014-038B","EPOCH":"2026-03-02T07:26:54.646080","MEAN_MOTION":5.00115622,"ECCENTRICITY":0.00044887,"INCLINATION":0.0588,"RA_OF_ASC_NODE":348.9474,"ARG_OF_PERICENTER":339.4059,"MEAN_ANOMALY":31.6123,"EPHEMERIS_TYPE":0,"CLASSIFICATION_TYPE":"U","NORAD_CAT_ID":40080,"ELEMENT_SET_NO":999,"REV_AT_EPOCH":21253,"BSTAR":0,"MEAN_MOTION_DOT":-2.9e-7,"MEAN_MOTION_DDOT":0},{"OBJECT_NAME":"O3B FM6","OBJECT_ID":"2014-038C","EPOCH":"2026-03-05T22:26:58.174656","MEAN_MOTION":5.0011572,"ECCENTRICITY":0.00026588,"INCLINATION":0.0549,"RA_OF_ASC_NODE":351.2735,"ARG_OF_PERICENTER":350.6773,"MEAN_ANOMALY":18.0342,"EPHEMERIS_TYPE":0,"CLASSIFICATION_TYPE":"U","NORAD_CAT_ID":40081,"ELEMENT_SET_NO":999,"REV_AT_EPOCH":21266,"BSTAR":0,"MEAN_MOTION_DOT":-2.6e-7,"MEAN_MOTION_DDOT":0},{"OBJECT_NAME":"O3B FM8","OBJECT_ID":"2014-038D","EPOCH":"2026-03-04T14:08:51.008064","MEAN_MOTION":5.00115977,"ECCENTRICITY":0.0002658,"INCLINATION":0.0558,"RA_OF_ASC_NODE":350.6431,"ARG_OF_PERICENTER":354.8269,"MEAN_ANOMALY":14.516,"EPHEMERIS_TYPE":0,"CLASSIFICATION_TYPE":"U","NORAD_CAT_ID":40082,"ELEMENT_SET_NO":999,"REV_AT_EPOCH":21271,"BSTAR":0,"MEAN_MOTION_DOT":-2.7e-7,"MEAN_MOTION_DDOT":0},{"OBJECT_NAME":"O3B FM10","OBJECT_ID":"2014-083A","EPOCH":"2026-03-05T19:34:52.133952","MEAN_MOTION":5.00115238,"ECCENTRICITY":0.00026847,"INCLINATION":0.0432,"RA_OF_ASC_NODE":347.4987,"ARG_OF_PERICENTER":355.649,"MEAN_ANOMALY":16.8377,"EPHEMERIS_TYPE":0,"CLASSIFICATION_TYPE":"U","NORAD_CAT_ID":40348,"ELEMENT_SET_NO":999,"REV_AT_EPOCH":20472,"BSTAR":0,"MEAN_MOTION_DOT":-2.6e-7,"MEAN_MOTION_DDOT":0},{"OBJECT_NAME":"O3B FM11","OBJECT_ID":"2014-083B","EPOCH":"2026-03-06T00:41:01.833216","MEAN_MOTION":5.00115617,"ECCENTRICITY":0.00031291,"INCLINATION":0.0567,"RA_OF_ASC_NODE":0.458,"ARG_OF_PERICENTER":333.2733,"MEAN_ANOMALY":26.2473,"EPHEMERIS_TYPE":0,"CLASSIFICATION_TYPE":"U","NORAD_CAT_ID":40349,"ELEMENT_SET_NO":999,"REV_AT_EPOCH":20475,"BSTAR":0,"MEAN_MOTION_DOT":-2.6e-7,"MEAN_MOTION_DDOT":0},{"OBJECT_NAME":"O3B FM12","OBJECT_ID":"2014-083C","EPOCH":"2026-03-03T10:58:05.766816","MEAN_MOTION":5.00115945,"ECCENTRICITY":0.00026432,"INCLINATION":0.056,"RA_OF_ASC_NODE":359.7796,"ARG_OF_PERICENTER":337.6957,"MEAN_ANOMALY":22.5061,"EPHEMERIS_TYPE":0,"CLASSIFICATION_TYPE":"U","NORAD_CAT_ID":40350,"ELEMENT_SET_NO":999,"REV_AT_EPOCH":20463,"BSTAR":0,"MEAN_MOTION_DOT":-2.8e-7,"MEAN_MOTION_DDOT":0},{"OBJECT_NAME":"O3B FM9","OBJECT_ID":"2014-083D","EPOCH":"2026-03-06T01:58:40.864224","MEAN_MOTION":5.00115916,"ECCENTRICITY":0.00027329,"INCLINATION":0.0579,"RA_OF_ASC_NODE":0.7211,"ARG_OF_PERICENTER":342.9273,"MEAN_ANOMALY":16.3373,"EPHEMERIS_TYPE":0,"CLASSIFICATION_TYPE":"U","NORAD_CAT_ID":40351,"ELEMENT_SET_NO":999,"REV_AT_EPOCH":20491,"BSTAR":0,"MEAN_MOTION_DOT":-2.6e-7,"MEAN_MOTION_DDOT":0},{"OBJECT_NAME":"LEO 1 (LEO VANTAGE 1)","OBJECT_ID":"2018-004C","EPOCH":"2026-03-06T05:28:47.617824","MEAN_MOTION":14.67143351,"ECCENTRICITY":0.03532244,"INCLINATION":99.2482,"RA_OF_ASC_NODE":330.0989,"ARG_OF_PERICENTER":35.4961,"MEAN_ANOMALY":326.9196,"EPHEMERIS_TYPE":0,"CLASSIFICATION_TYPE":"U","NORAD_CAT_ID":43113,"ELEMENT_SET_NO":999,"REV_AT_EPOCH":42238,"BSTAR":0.00039548305,"MEAN_MOTION_DOT":5.704e-5,"MEAN_MOTION_DDOT":0},{"OBJECT_NAME":"O3B FM15","OBJECT_ID":"2018-024A","EPOCH":"2026-03-05T22:46:58.655136","MEAN_MOTION":5.00115727,"ECCENTRICITY":0.00026889,"INCLINATION":0.0486,"RA_OF_ASC_NODE":0.9069,"ARG_OF_PERICENTER":340.0136,"MEAN_ANOMALY":19.0639,"EPHEMERIS_TYPE":0,"CLASSIFICATION_TYPE":"U","NORAD_CAT_ID":43231,"ELEMENT_SET_NO":999,"REV_AT_EPOCH":14586,"BSTAR":0,"MEAN_MOTION_DOT":-2.6e-7,"MEAN_MOTION_DDOT":0},{"OBJECT_NAME":"O3B FM16","OBJECT_ID":"2018-024B","EPOCH":"2026-03-06T04:50:14.394336","MEAN_MOTION":5.00115882,"ECCENTRICITY":0.00028278,"INCLINATION":0.045,"RA_OF_ASC_NODE":2.8168,"ARG_OF_PERICENTER":339.2721,"MEAN_ANOMALY":17.8957,"EPHEMERIS_TYPE":0,"CLASSIFICATION_TYPE":"U","NORAD_CAT_ID":43232,"ELEMENT_SET_NO":999,"REV_AT_EPOCH":14579,"BSTAR":0,"MEAN_MOTION_DOT":-2.6e-7,"MEAN_MOTION_DDOT":0},{"OBJECT_NAME":"O3B FM14","OBJECT_ID":"2018-024C","EPOCH":"2026-03-06T01:01:04.982592","MEAN_MOTION":5.00115671,"ECCENTRICITY":0.0002846,"INCLINATION":0.0435,"RA_OF_ASC_NODE":1.7188,"ARG_OF_PERICENTER":343.7951,"MEAN_ANOMALY":14.4724,"EPHEMERIS_TYPE":0,"CLASSIFICATION_TYPE":"U","NORAD_CAT_ID":43233,"ELEMENT_SET_NO":999,"REV_AT_EPOCH":14578,"BSTAR":0,"MEAN_MOTION_DOT":-2.6e-7,"MEAN_MOTION_DDOT":0},{"OBJECT_NAME":"O3B FM13","OBJECT_ID":"2018-024D","EPOCH":"2026-03-03T02:38:16.342368","MEAN_MOTION":5.00115687,"ECCENTRICITY":0.00042952,"INCLINATION":0.0485,"RA_OF_ASC_NODE":331.6373,"ARG_OF_PERICENTER":331.6147,"MEAN_ANOMALY":56.6997,"EPHEMERIS_TYPE":0,"CLASSIFICATION_TYPE":"U","NORAD_CAT_ID":43234,"ELEMENT_SET_NO":999,"REV_AT_EPOCH":14574,"BSTAR":0,"MEAN_MOTION_DOT":-2.8e-7,"MEAN_MOTION_DDOT":0}]
